NORAD_CAT_ID,OBJECT_NAME,OBJECT_TYPE,EPOCH,MEAN_MOTION,ECCENTRICITY,INCLINATION,RA_OF_ASC_NODE,ARG_OF_PERICENTER,MEAN_ANOMALY,BSTAR,MEAN_MOTION_DOT,MEAN_MOTION_DDOT,TLE_LINE0,TLE_LINE1,TLE_LINE2,SEMIMAJOR_AXIS,PERIOD,APOGEE,PERIGEE,DECAYED
53246.0,STARLINK-4131,PAYLOAD,2024-01-16 16:10:14,15.08848704,0.0001391,53.2164,119.2161,100.136,259.9789,0.00010849,1.439e-05,0.0,0 STARLINK-4131,1 53246U 22086E   24016.67377443  .00001439  00000-0  10849-3 0  9994,2 53246  53.2164 119.2161 0001391 100.1360 259.9789 15.08848704 82531,6917.854,95.437,540.681,538.757,0.0
53246.0,STARLINK-4131,PAYLOAD,2024-01-17 11:14:52,15.08841737,0.000159,53.2174,115.6462,114.8129,245.3029,-0.00011521,-2.121e-05,0.0,0 STARLINK-4131,1 53246U 22086E   24017.46865982 -.00002121  00000-0 -11521-3 0  9991,2 53246  53.2174 115.6462 0001590 114.8129 245.3029 15.08841737 82650,6917.875,95.437,540.84,538.64,0.0
53246.0,STARLINK-4131,PAYLOAD,2024-01-17 12:50:15,15.08840683,0.0001853,53.2176,115.3495,113.3794,246.7393,-3.5486e-06,-3.45e-06,0.0,0 STARLINK-4131,1 53246U 22086E   24017.53490112 -.00000345  00000-0 -35486-5 0  9992,2 53246  53.2176 115.3495 0001853 113.3794 246.7393 15.08840683 82051,6917.878,95.438,541.025,538.461,0.0
53246.0,STARLINK-4131,PAYLOAD,2024-01-18 12:41:02,15.08844988,0.0001619,53.2171,110.8918,98.1312,261.9864,0.00020087,2.911e-05,0.0,0 STARLINK-4131,1 53246U 22086E   24018.52850211  .00002911  00000-0  20087-3 0  9990,2 53246  53.2171 110.8918 0001619  98.1312 261.9864 15.08844988 82203,6917.865,95.437,540.85,538.61,0.0
53246.0,STARLINK-4131,PAYLOAD,2024-01-19 10:56:26,15.08839728,0.0001486,53.2164,106.7262,83.541,276.5751,8.6887e-05,1.095e-05,0.0,0 STARLINK-4131,1 53246U 22086E   24019.45586675  .00001095  00000-0  86887-4 0  9996,2 53246  53.2164 106.7262 0001486  83.5410 276.5751 15.08839728 82955,6917.881,95.438,540.774,538.718,0.0
53246.0,STARLINK-4131,PAYLOAD,2024-01-20 12:22:36,15.08851211,0.00015,53.2163,101.9701,76.7316,283.3844,0.00016528,2.344e-05,0.0,0 STARLINK-4131,1 53246U 22086E   24020.51570134  .00002344  00000-0  16528-3 0  9990,2 53246  53.2163 101.9701 0001500  76.7316 283.3844 15.08851211 82506,6917.846,95.437,540.749,538.673,0.0
53246.0,STARLINK-4131,PAYLOAD,2024-01-21 10:38:00,15.08842342,0.0001499,53.2167,97.8078,81.3077,278.8085,0.00011869,1.602e-05,0.0,0 STARLINK-4131,1 53246U 22086E   24021.44306590  .00001602  00000-0  11869-3 0  9995,2 53246  53.2167  97.8078 0001499  81.3077 278.8085 15.08842342 83257,6917.873,95.437,540.775,538.701,0.0
53246.0,STARLINK-4131,PAYLOAD,2024-01-22 12:04:10,15.08844907,0.0001556,53.217,93.0487,77.2558,282.8607,3.5376e-05,2.75e-06,0.0,0 STARLINK-4131,1 53246U 22086E   24022.50290429  .00000275  00000-0  35376-4 0  9991,2 53246  53.2170  93.0487 0001556  77.2558 282.8607 15.08844907 83417,6917.865,95.437,540.807,538.654,0.0
53246.0,STARLINK-4131,PAYLOAD,2024-01-23 11:54:59,15.08820666,0.0002329,53.2186,88.5898,57.2489,302.8727,0.00085645,0.00013362,0.0,0 STARLINK-4131,1 53246U 22086E   24023.49652081  .00013362  00000-0  85645-3 0  9990,2 53246  53.2186  88.5898 0002329  57.2489 302.8727 15.08820666 83567,6917.939,95.439,541.416,538.193,0.0
53246.0,STARLINK-4131,PAYLOAD,2024-01-24 10:10:22,15.08837733,0.0002247,53.2188,84.4227,58.4197,301.7014,5.6932e-05,6.18e-06,0.0,0 STARLINK-4131,1 53246U 22086E   24024.42387374  .00000618  00000-0  56932-4 0  9992,2 53246  53.2188  84.4227 0002247  58.4197 301.7014 15.08837733 83096,6917.887,95.438,541.307,538.198,0.0
53246.0,STARLINK-4131,PAYLOAD,2024-01-25 10:01:09,15.08834722,0.0002124,53.2196,79.9595,63.8633,296.2578,0.00019765,2.858e-05,0.0,0 STARLINK-4131,1 53246U 22086E   24025.41747542  .00002858  00000-0  19765-3 0  9999,2 53246  53.2196  79.9595 0002124  63.8633 296.2578 15.08834722 83246,6917.897,95.438,541.231,538.292,0.0
53246.0,STARLINK-4131,PAYLOAD,2024-01-26 09:51:56,15.08844422,0.0001713,53.2181,75.5077,100.1917,259.9268,0.00015453,2.172e-05,0.0,0 STARLINK-4131,1 53246U 22086E   24026.41106890  .00002172  00000-0  15453-3 0  9994,2 53246  53.2181  75.5077 0001713 100.1917 259.9268 15.08844422 84005,6917.867,95.437,540.917,538.547,0.0
53246.0,STARLINK-4131,PAYLOAD,2024-01-27 08:07:20,15.08844893,0.0001751,53.2185,71.3434,102.2235,257.8953,9.4907e-05,1.223e-05,0.0,0 STARLINK-4131,1 53246U 22086E   24027.33842903  .00001223  00000-0  94907-4 0  9996,2 53246  53.2185  71.3434 0001751 102.2235 257.8953 15.08844893 83535,6917.865,95.437,540.942,538.519,0.0
53246.0,STARLINK-4131,PAYLOAD,2024-01-28 09:33:31,15.08834245,0.0001693,53.2182,66.5882,98.8636,261.2548,-2.7478e-05,-7.25e-06,0.0,0 STARLINK-4131,1 53246U 22086E   24028.39827974 -.00000725  00000-0 -27478-4 0  9991,2 53246  53.2182  66.5882 0001693  98.8636 261.2548 15.08834245 84300,6917.898,95.438,540.934,538.592,0.0
53246.0,STARLINK-4131,PAYLOAD,2024-01-29 07:48:54,15.08843001,0.0001606,53.2177,62.4238,94.7062,265.4113,5.5946e-05,6.03e-06,0.0,0 STARLINK-4131,1 53246U 22086E   24029.32563397  .00000603  00000-0  55946-4 0  9995,2 53246  53.2177  62.4238 0001606  94.7062 265.4113 15.08843001 84445,6917.871,95.437,540.847,538.625,0.0
53246.0,STARLINK-4131,PAYLOAD,2024-01-30 10:50:28,15.08840313,0.0001675,53.218,57.3654,93.0574,267.061,0.0001196,1.616e-05,0.0,0 STARLINK-4131,1 53246U 22086E   24030.45171711  .00001616  00000-0  11960-3 0  9998,2 53246  53.2180  57.3654 0001675  93.0574 267.0610 15.08840313 84612,6917.879,95.438,540.903,538.586,0.0
53246.0,STARLINK-4131,PAYLOAD,2024-01-31 09:05:52,15.08841593,0.0001933,53.2187,53.2044,84.5606,275.5607,7.2409e-05,8.64e-06,0.0,0 STARLINK-4131,1 53246U 22086E   24031.37907930  .00000864  00000-0  72409-4 0  9990,2 53246  53.2187  53.2044 0001933  84.5606 275.5607 15.08841593 84144,6917.876,95.437,541.078,538.403,0.0
53246.0,STARLINK-4131,PAYLOAD,2024-02-01 00:59:44,15.08839659,0.0001889,53.2186,50.2313,87.5871,272.5337,3.3552e-05,2.46e-06,0.0,0 STARLINK-4131,1 53246U 22086E   24032.04148183  .00000246  00000-0  33552-4 0  9992,2 53246  53.2186  50.2313 0001889  87.5871 272.5337 15.08839659 84851,6917.881,95.438,541.053,538.44,0.0
53246.0,STARLINK-4131,PAYLOAD,2024-02-01 10:32:02,15.08840259,0.0001826,53.2185,48.4457,92.2663,267.8538,3.3311e-05,2.42e-06,0.0,0 STARLINK-4131,1 53246U 22086E   24032.43892112  .00000242  00000-0  33311-4 0  9992,2 53246  53.2185  48.4457 0001826  92.2663 267.8538 15.08840259 84309,6917.88,95.438,541.008,538.481,0.0
53246.0,STARLINK-4131,PAYLOAD,2024-02-02 07:12:03,15.08842663,0.0001866,53.2186,44.5803,87.7989,272.3217,5.5018e-05,5.88e-06,0.0,0 STARLINK-4131,1 53246U 22086E   24033.30003949  .00000588  00000-0  55018-4 0  9992,2 53246  53.2186  44.5803 0001866  87.7989 272.3217 15.08842663 85044,6917.872,95.437,541.028,538.446,0.0
53246.0,STARLINK-4131,PAYLOAD,2024-02-03 07:02:50,15.08842032,0.0001661,53.2177,40.1185,99.6835,260.4345,7.5313e-05,9.11e-06,0.0,0 STARLINK-4131,1 53246U 22086E   24034.29363830  .00000911  00000-0  75313-4 0  9999,2 53246  53.2177  40.1185 0001661  99.6835 260.4345 15.08842032 84582,6917.874,95.437,540.888,538.59,0.0
53246.0,STARLINK-4131,PAYLOAD,2024-02-04 03:42:51,15.08837958,0.0001639,53.2174,36.254,95.6891,264.4288,1.8662e-06,-2.58e-06,0.0,0 STARLINK-4131,1 53246U 22086E   24035.15476379 -.00000258  00000-0  18662-5 0  9998,2 53246  53.2174  36.2540 0001639  95.6891 264.4288 15.08837958 85327,6917.887,95.438,540.885,538.618,0.0
53246.0,STARLINK-4131,PAYLOAD,2024-02-04 06:53:37,15.08839923,0.0001626,53.2176,35.6594,94.3049,265.8128,1.6653e-05,-2.3e-07,0.0,0 STARLINK-4131,1 53246U 22086E   24035.28724270 -.00000023  00000-0  16653-4 0  9995,2 53246  53.2176  35.6594 0001626  94.3049 265.8128 15.08839923 84734,6917.881,95.438,540.87,538.621,0.0
53246.0,STARLINK-4131,PAYLOAD,2024-02-05 06:44:24,15.08844344,0.0001565,53.2179,31.1993,89.4757,270.6415,6.8877e-05,8.08e-06,0.0,0 STARLINK-4131,1 53246U 22086E   24036.28083899  .00000808  00000-0  68877-4 0  9996,2 53246  53.2179  31.1993 0001565  89.4757 270.6415 15.08844344 85494,6917.867,95.437,540.815,538.649,0.0
53246.0,STARLINK-4131,PAYLOAD,2024-02-06 03:24:25,15.08831386,0.000151,53.2182,27.334,87.1893,272.9272,0.00011234,1.5e-05,0.0,0 STARLINK-4131,1 53246U 22086E   24037.14196646  .00001500  00000-0  11234-3 0  9991,2 53246  53.2182  27.3340 0001510  87.1893 272.9272 15.08831386 85620,6917.907,95.438,540.816,538.727,0.0
53246.0,STARLINK-4131,PAYLOAD,2024-02-06 09:45:57,15.08847126,0.0001804,53.2195,26.1428,93.1442,266.9757,0.0001157,1.554e-05,0.0,0 STARLINK-4131,1 53246U 22086E   24037.40691722  .00001554  00000-0  11570-3 0  9997,2 53246  53.2195  26.1428 0001804  93.1442 266.9757 15.08847126 85665,6917.859,95.437,540.972,538.476,0.0
53246.0,STARLINK-4131,PAYLOAD,2024-02-07 03:15:12,15.08841003,0.0001852,53.2201,22.8696,102.6577,257.4622,-8.475e-06,-4.23e-06,0.0,0 STARLINK-4131,1 53246U 22086E   24038.13556448 -.00000423  00000-0 -84750-5 0  9991,2 53246  53.2201  22.8696 0001852 102.6577 257.4622 15.08841003 85777,6917.877,95.437,541.024,538.461,0.0
53246.0,STARLINK-4131,PAYLOAD,2024-02-07 08:01:21,15.08847685,0.0001657,53.2192,21.976,100.1491,259.9688,4.951e-05,5e-06,0.0,0 STARLINK-4131,1 53246U 22086E   24038.33427669  .00000500  00000-0  49510-4 0  9993,2 53246  53.2192  21.9760 0001657 100.1491 259.9688 15.08847685 85804,6917.857,95.437,540.868,538.576,0.0
53246.0,STARLINK-4131,PAYLOAD,2024-02-07 15:58:18,15.08833171,0.0001706,53.2178,20.4949,80.249,279.8695,-8.5592e-06,-4.24e-06,0.0,0 STARLINK-4131,1 53246U 22086E   24038.66549063 -.00000424  00000-0 -85592-5 0  9990,2 53246  53.2178  20.4949 0001706  80.2490 279.8695 15.08833171 85852,6917.901,95.438,540.946,538.586,0.0
53246.0,STARLINK-4131,PAYLOAD,2024-02-07 22:19:50,15.08836772,0.0001738,53.2188,19.3033,95.6573,264.4617,-7.0631e-05,-1.412e-05,0.0,0 STARLINK-4131,1 53246U 22086E   24038.93045129 -.00001412  00000-0 -70631-4 0  9999,2 53246  53.2188  19.3033 0001738  95.6573 264.4617 15.08836772 85282,6917.89,95.438,540.958,538.553,0.0
